start=new Date('2023-01-07T00:00:00.000Z').valueOf();
sats=[{"GP_ID":"222347210","MEAN_ANOMALY":"322.6315","ELEMENT_SET_NO":"999","CLASSIFICATION_TYPE":"U","ECCENTRICITY":"0.00019390","EPOCH":"2023-01-06T22:00:00.999936","BSTAR":"-0.00048430000000","OBJECT_NAME":"STARLINK-5271","SEMIMAJOR_AXIS":"6795.023","CENTER_NAME":"EARTH","MEAN_MOTION_DDOT":"0.0000000000000","TLE_LINE1":"1 54194U 22141AP  23006.91667824 -.00027901  00000-0 -48430-3 0  9990","MEAN_MOTION_DOT":"-0.00027901","ARG_OF_PERICENTER":"47.1729","MEAN_ELEMENT_THEORY":"SGP4","RCS_SIZE":"LARGE","EPHEMERIS_TYPE":"0","TLE_LINE2":"2 54194  53.2123 154.3449 0001939  47.1729 322.6315 15.49945220  1300","LAUNCH_DATE":"2022-10-28","PERIOD":"92.907","RA_OF_ASC_NODE":"154.3449","REF_FRAME":"TEME","PERIAPSIS":"415.571","TIME_SYSTEM":"UTC","APOAPSIS":"418.206","NORAD_CAT_ID":"54194","SITE":"AFWTR","MEAN_MOTION":"15.49945220","OBJECT_TYPE":"PAYLOAD","DECAY_DATE":null,"OBJECT_ID":"2022-141AP","INCLINATION":"53.2123","FILE":"3734255","COUNTRY_CODE":"US","REV_AT_EPOCH":"130"},{"ARG_OF_PERICENTER":"36.1224","MEAN_ELEMENT_THEORY":"SGP4","RCS_SIZE":"LARGE","TLE_LINE2":"2 54195  53.2124 154.3529 0001652  36.1224 329.7643 15.49858976 11406","EPHEMERIS_TYPE":"0","MEAN_MOTION_DOT":"0.00044365","TLE_LINE1":"1 54195U 22141AQ  23006.91667824  .00044365  00000-0  78589-3 0  9990","MEAN_MOTION_DDOT":"0.0000000000000","DECAY_DATE":null,"SITE":"AFWTR","OBJECT_TYPE":"PAYLOAD","MEAN_MOTION":"15.49858976","OBJECT_ID":"2022-141AQ","FILE":"3734100","INCLINATION":"53.2124","COUNTRY_CODE":"US","REV_AT_EPOCH":"1140","RA_OF_ASC_NODE":"154.3529","PERIOD":"92.912","LAUNCH_DATE":"2022-10-28","PERIAPSIS":"416.018","REF_FRAME":"TEME","TIME_SYSTEM":"UTC","NORAD_CAT_ID":"54195","APOAPSIS":"418.263","CLASSIFICATION_TYPE":"U","ELEMENT_SET_NO":"999","ECCENTRICITY":"0.00016520","EPOCH":"2023-01-06T22:00:00.999936","GP_ID":"222317694","MEAN_ANOMALY":"329.7643","OBJECT_NAME":"STARLINK-5258","SEMIMAJOR_AXIS":"6795.275","CENTER_NAME":"EARTH","BSTAR":"0.00078589000000"},{"CENTER_NAME":"EARTH","SEMIMAJOR_AXIS":"6794.988","OBJECT_NAME":"STARLINK-5237","BSTAR":"-0.00087742000000","EPOCH":"2023-01-06T22:00:00.999936","ECCENTRICITY":"0.00020210","CLASSIFICATION_TYPE":"U","ELEMENT_SET_NO":"999","MEAN_ANOMALY":"313.5063","GP_ID":"222317711","COUNTRY_CODE":"US","REV_AT_EPOCH":"1140","FILE":"3734101","INCLINATION":"53.2120","OBJECT_ID":"2022-141AR","DECAY_DATE":null,"SITE":"AFWTR","MEAN_MOTION":"15.49957255","OBJECT_TYPE":"PAYLOAD","NORAD_CAT_ID":"54196","APOAPSIS":"418.226","TIME_SYSTEM":"UTC","PERIAPSIS":"415.480","REF_FRAME":"TEME","RA_OF_ASC_NODE":"154.3386","LAUNCH_DATE":"2022-10-28","PERIOD":"92.906","TLE_LINE2":"2 54196  53.2120 154.3386 0002021  58.8210 313.5063 15.49957255 11408","EPHEMERIS_TYPE":"0","RCS_SIZE":"LARGE","MEAN_ELEMENT_THEORY":"SGP4","ARG_OF_PERICENTER":"58.8210","MEAN_MOTION_DOT":"-0.00050063","MEAN_MOTION_DDOT":"0.0000000000000","TLE_LINE1":"1 54196U 22141AR  23006.91667824 -.00050063  00000-0 -87742-3 0  9996"},{"MEAN_ANOMALY":"327.0646","GP_ID":"222317710","EPOCH":"2023-01-06T22:00:00.999936","ECCENTRICITY":"0.00019560","ELEMENT_SET_NO":"999","CLASSIFICATION_TYPE":"U","BSTAR":"0.00020972000000","CENTER_NAME":"EARTH","SEMIMAJOR_AXIS":"6794.999","OBJECT_NAME":"STARLINK-5234","MEAN_MOTION_DDOT":"0.0000000000000","TLE_LINE1":"1 54197U 22141AS  23006.91667824  .00011497  00000-0  20972-3 0  9995","MEAN_MOTION_DOT":"0.00011497","EPHEMERIS_TYPE":"0","TLE_LINE2":"2 54197  53.2129 154.3470 0001956  41.2829 327.0646 15.49953590 11405","RCS_SIZE":"LARGE","MEAN_ELEMENT_THEORY":"SGP4","ARG_OF_PERICENTER":"41.2829","APOAPSIS":"418.193","NORAD_CAT_ID":"54197","TIME_SYSTEM":"UTC","REF_FRAME":"TEME","PERIAPSIS":"415.535","LAUNCH_DATE":"2022-10-28","PERIOD":"92.906","RA_OF_ASC_NODE":"154.3470","COUNTRY_CODE":"US","REV_AT_EPOCH":"1140","INCLINATION":"53.2129","FILE":"3734101","OBJECT_ID":"2022-141AS","SITE":"AFWTR","OBJECT_TYPE":"PAYLOAD","MEAN_MOTION":"15.49953590","DECAY_DATE":null},{"OBJECT_NAME":"STARLINK-5246","SEMIMAJOR_AXIS":"6795.247","CENTER_NAME":"EARTH","BSTAR":"0.00078462000000","ELEMENT_SET_NO":"999","CLASSIFICATION_TYPE":"U","ECCENTRICITY":"0.00016590","EPOCH":"2023-01-06T22:00:00.999936","GP_ID":"222346752","MEAN_ANOMALY":"334.9487","SITE":"AFWTR","MEAN_MOTION":"15.49868712","OBJECT_TYPE":"PAYLOAD","DECAY_DATE":null,"OBJECT_ID":"2022-141AT","INCLINATION":"53.2122","FILE":"3734255","REV_AT_EPOCH":"130","COUNTRY_CODE":"US","LAUNCH_DATE":"2022-10-28","PERIOD":"92.911","RA_OF_ASC_NODE":"154.3358","REF_FRAME":"TEME","PERIAPSIS":"415.984","TIME_SYSTEM":"UTC","APOAPSIS":"418.239","NORAD_CAT_ID":"54198","ARG_OF_PERICENTER":"38.7177","MEAN_ELEMENT_THEORY":"SGP4","RCS_SIZE":"LARGE","EPHEMERIS_TYPE":"0","TLE_LINE2":"2 54198  53.2122 154.3358 0001659  38.7177 334.9487 15.49868712  1300","TLE_LINE1":"1 54198U 22141AT  23006.91667824  .00044307  00000-0  78462-3 0  9999","MEAN_MOTION_DDOT":"0.0000000000000","MEAN_MOTION_DOT":"0.00044307"},{"COUNTRY_CODE":"US","REV_AT_EPOCH":"1140","INCLINATION":"53.2126","FILE":"3734102","OBJECT_ID":"2022-141AU","SITE":"AFWTR","MEAN_MOTION":"15.49929756","OBJECT_TYPE":"PAYLOAD","DECAY_DATE":null,"APOAPSIS":"418.108","NORAD_CAT_ID":"54199","TIME_SYSTEM":"UTC","REF_FRAME":"TEME","PERIAPSIS":"415.758","LAUNCH_DATE":"2022-10-28","PERIOD":"92.907","RA_OF_ASC_NODE":"154.3421","EPHEMERIS_TYPE":"0","TLE_LINE2":"2 54199  53.2126 154.3421 0001729  37.1095 334.0236 15.49929756 11407","RCS_SIZE":"LARGE","MEAN_ELEMENT_THEORY":"SGP4","ARG_OF_PERICENTER":"37.1095","MEAN_MOTION_DDOT":"0.0000000000000","TLE_LINE1":"1 54199U 22141AU  23006.91667824 -.00038252  00000-0 -66819-3 0  9997","MEAN_MOTION_DOT":"-0.00038252","CENTER_NAME":"EARTH","SEMIMAJOR_AXIS":"6795.068","OBJECT_NAME":"STARLINK-5244","BSTAR":"-0.00066819000000","EPOCH":"2023-01-06T22:00:00.999936","ECCENTRICITY":"0.00017290","ELEMENT_SET_NO":"999","CLASSIFICATION_TYPE":"U","MEAN_ANOMALY":"334.0236","GP_ID":"222317717"},{"TLE_LINE1":"1 54200U 22141AV  23006.91667824 -.00021512  00000-0 -37154-3 0  9991","MEAN_MOTION_DDOT":"0.0000000000000","MEAN_MOTION_DOT":"-0.00021512","ARG_OF_PERICENTER":"34.1194","MEAN_ELEMENT_THEORY":"SGP4","RCS_SIZE":"LARGE","EPHEMERIS_TYPE":"0","TLE_LINE2":"2 54200  53.2133 154.3259 0001868  34.1194 343.3789 15.49925373 11405","LAUNCH_DATE":"2022-10-28","PERIOD":"92.908","RA_OF_ASC_NODE":"154.3259","REF_FRAME":"TEME","PERIAPSIS":"415.677","TIME_SYSTEM":"UTC","APOAPSIS":"418.215","NORAD_CAT_ID":"54200","OBJECT_TYPE":"PAYLOAD","SITE":"AFWTR","MEAN_MOTION":"15.49925373","DECAY_DATE":null,"OBJECT_ID":"2022-141AV","INCLINATION":"53.2133","FILE":"3734102","COUNTRY_CODE":"US","REV_AT_EPOCH":"1140","GP_ID":"222317284","MEAN_ANOMALY":"343.3789","ELEMENT_SET_NO":"999","CLASSIFICATION_TYPE":"U","ECCENTRICITY":"0.00018680","EPOCH":"2023-01-06T22:00:00.999936","BSTAR":"-0.00037154000000","OBJECT_NAME":"STARLINK-5250","SEMIMAJOR_AXIS":"6795.081","CENTER_NAME":"EARTH"},{"LAUNCH_DATE":"2022-10-28","PERIOD":"92.906","RA_OF_ASC_NODE":"154.3262","REF_FRAME":"TEME","PERIAPSIS":"415.567","TIME_SYSTEM":"UTC","APOAPSIS":"418.188","NORAD_CAT_ID":"54201","SITE":"AFWTR","MEAN_MOTION":"15.49948865","OBJECT_TYPE":"PAYLOAD","DECAY_DATE":null,"OBJECT_ID":"2022-141AW","INCLINATION":"53.2136","FILE":"3734255","COUNTRY_CODE":"US","REV_AT_EPOCH":"130","TLE_LINE1":"1 54201U 22141AW  23006.91667824 -.00058323  00000-0 -10249-2 0  9997","MEAN_MOTION_DDOT":"0.0000000000000","MEAN_MOTION_DOT":"-0.00058323","ARG_OF_PERICENTER":"41.2431","MEAN_ELEMENT_THEORY":"SGP4","RCS_SIZE":"LARGE","EPHEMERIS_TYPE":"0","TLE_LINE2":"2 54201  53.2136 154.3262 0001928  41.2431 337.4926 15.49948865  1309","BSTAR":"-0.00102490000000","OBJECT_NAME":"STARLINK-5199","SEMIMAJOR_AXIS":"6795.013","CENTER_NAME":"EARTH","GP_ID":"222346523","MEAN_ANOMALY":"337.4926","ELEMENT_SET_NO":"999","CLASSIFICATION_TYPE":"U","ECCENTRICITY":"0.00019280","EPOCH":"2023-01-06T22:00:00.999936"},{"BSTAR":"0.00074642000000","CENTER_NAME":"EARTH","SEMIMAJOR_AXIS":"6795.235","OBJECT_NAME":"STARLINK-5205","MEAN_ANOMALY":"321.4215","GP_ID":"222347211","EPOCH":"2023-01-06T22:00:00.999936","ECCENTRICITY":"0.00023590","ELEMENT_SET_NO":"999","CLASSIFICATION_TYPE":"U","APOAPSIS":"418.703","NORAD_CAT_ID":"54202","TIME_SYSTEM":"UTC","REF_FRAME":"TEME","PERIAPSIS":"415.497","PERIOD":"92.911","LAUNCH_DATE":"2022-10-28","RA_OF_ASC_NODE":"154.3246","REV_AT_EPOCH":"130","COUNTRY_CODE":"US","INCLINATION":"53.2134","FILE":"3734255","OBJECT_ID":"2022-141AX","MEAN_MOTION":"15.49872645","SITE":"AFWTR","OBJECT_TYPE":"PAYLOAD","DECAY_DATE":null,"TLE_LINE1":"1 54202U 22141AX  23006.91667824  .00042123  00000-0  74642-3 0  9995","MEAN_MOTION_DDOT":"0.0000000000000","MEAN_MOTION_DOT":"0.00042123","EPHEMERIS_TYPE":"0","TLE_LINE2":"2 54202  53.2134 154.3246 0002359  58.5061 321.4215 15.49872645  1305","RCS_SIZE":"LARGE","MEAN_ELEMENT_THEORY":"SGP4","ARG_OF_PERICENTER":"58.5061"},{"SEMIMAJOR_AXIS":"6795.380","OBJECT_NAME":"STARLINK-5247","CENTER_NAME":"EARTH","BSTAR":"0.00093994000000","ECCENTRICITY":"0.00018420","CLASSIFICATION_TYPE":"U","ELEMENT_SET_NO":"999","EPOCH":"2023-01-06T22:00:00.999936","MEAN_ANOMALY":"308.0888","GP_ID":"222317293","OBJECT_ID":"2022-141AY","DECAY_DATE":null,"SITE":"AFWTR","MEAN_MOTION":"15.49823045","OBJECT_TYPE":"PAYLOAD","REV_AT_EPOCH":"1140","COUNTRY_CODE":"US","FILE":"3734119","INCLINATION":"53.2133","PERIAPSIS":"415.994","REF_FRAME":"TEME","RA_OF_ASC_NODE":"154.3357","PERIOD":"92.914","LAUNCH_DATE":"2022-10-28","NORAD_CAT_ID":"54203","APOAPSIS":"418.497","TIME_SYSTEM":"UTC","MEAN_ELEMENT_THEORY":"SGP4","ARG_OF_PERICENTER":"66.6979","TLE_LINE2":"2 54203  53.2133 154.3357 0001842  66.6979 308.0888 15.49823045 11401","EPHEMERIS_TYPE":"0","RCS_SIZE":"LARGE","MEAN_MOTION_DOT":"0.00053142","TLE_LINE1":"1 54203U 22141AY  23006.91667824  .00053142  00000-0  93994-3 0  9990","MEAN_MOTION_DDOT":"0.0000000000000"}];
